JY1SAT (JO-97)          
1 43803U 18099AX  26068.68634132  .00017774  00000+0  60804-3 0  9996
2 43803  97.4249 131.3625 0004723 256.6795 103.3919 15.30302628398390
STARLINK-31273          
1 58846U 24017W   26068.69114578 -.00000205  00000+0  52105-5 0  9993
2 58846  53.1615 204.5084 0001375  74.9705 285.1448 15.30189946120051
